{"type": "FeatureCollection", "features": [ {"type": "Feature", "properties": {"norad_id": 30941, "name": "FENGYUN 1C DEB", "group": "fengyun-1c-debris", "lat": -65.02176519748619, "lon": -5.106643208378218, "alt_km": 799.6913395746969, "timestamp": "2025-12-02T17:49:12.307636+00:00", "meta": {"OBJECT_NAME": "FENGYUN 1C DEB", "OBJECT_ID": "1999-025BAF", "EPOCH": "2025-12-01T13:49:03.246528", "MEAN_MOTION": 14.30862739, "ECCENTRICITY": 0.00349916, "INCLINATION": 98.5501, "RA_OF_ASC_NODE": 192.5869, "ARG_OF_PERICENTER": 348.4723, "MEAN_ANOMALY": 11.5655, "EPHEMERIS_TYPE": 0, "CLASSIFICATION_TYPE": "U", "NORAD_CAT_ID": 30941, "ELEMENT_SET_NO": 999, "REV_AT_EPOCH": 96466, "BSTAR": 0.0018784871, "MEAN_MOTION_DOT": 4.921e-05, "MEAN_MOTION_DDOT": 0}, "tle": {"line1": "1 30941U 99025BAF 25335.57573202  .00004921  00000+0  18785-2 0  9997", "line2": "2 30941  98.5501 192.5869 0034991 348.4723  11.5655 14.30862739964661"}}, "geometry": {"type": "Point", "coordinates": [-5.106643208378218, -65.02176519748619]}}, {"type": "Feature", "properties": {"norad_id": 30942, "name": "FENGYUN 1C DEB", "group": "fengyun-1c-debris", "lat": 65.1117067576687, "lon": 174.48048162101344, "alt_km": 743.6809162987183, "timestamp": "2025-12-02T17:49:12.307646+00:00", "meta": {"OBJECT_NAME": "FENGYUN 1C DEB", "OBJECT_ID": "1999-025BAG", "EPOCH": "2025-12-02T11:12:59.884992", "MEAN_MOTION": 14.14823361, "ECCENTRICITY": 0.0137744, "INCLINATION": 98.6796, "RA_OF_ASC_NODE": 334.9892, "ARG_OF_PERICENTER": 135.4924, "MEAN_ANOMALY": 17.8276, "EPHEMERIS_TYPE": 0, "CLASSIFICATION_TYPE": "U", "NORAD_CAT_ID": 30942, "ELEMENT_SET_NO": 999, "REV_AT_EPOCH": 96499, "BSTAR": 0.00026233, "MEAN_MOTION_DOT": 5.13e-06, "MEAN_MOTION_DDOT": 0}, "tle": {"line1": "1 30942U 99025BAG 25336.46735978  .00000513  00000+0  26233-3 0  9998", "line2": "2 30942  98.6796 334.9892 0137744 135.4924  17.8276 14.14823361964998"}}, "geometry": {"type": "Point", "coordinates": [174.48048162101344, 65.1117067576687]}}, {"type": "Feature", "properties": {"norad_id": 30943, "name": "FENGYUN 1C DEB", "group": "fengyun-1c-debris", "lat": 73.3464487206161, "lon": -157.84630412575453, "alt_km": 834.9013162336514, "timestamp": "2025-12-02T17:49:12.307656+00:00", "meta": {"OBJECT_NAME": "FENGYUN 1C DEB", "OBJECT_ID": "1999-025BAH", "EPOCH": "2025-12-02T12:11:59.658432", "MEAN_MOTION": 14.0447447, "ECCENTRICITY": 0.0051067, "INCLINATION": 98.7977, "RA_OF_ASC_NODE": 350.7478, "ARG_OF_PERICENTER": 93.7586, "MEAN_ANOMALY": 266.9423, "EPHEMERIS_TYPE": 0, "CLASSIFICATION_TYPE": "U", "NORAD_CAT_ID": 30943, "ELEMENT_SET_NO": 999, "REV_AT_EPOCH": 95598, "BSTAR": 0.00019112, "MEAN_MOTION_DOT": 2.66e-06, "MEAN_MOTION_DDOT": 0}, "tle": {"line1": "1 30943U 99025BAH 25336.50832938  .00000266  00000+0  19112-3 0  9991", "line2": "2 30943  98.7977 350.7478 0051067  93.7586 266.9423 14.04474470955982"}}, "geometry": {"type": "Point", "coordinates": [-157.84630412575453, 73.3464487206161]}}, {"type": "Feature", "properties": {"norad_id": 30944, "name": "FENGYUN 1C DEB", "group": "fengyun-1c-debris", "lat": 0.7561887942275723, "lon": 31.77901222779432, "alt_km": 787.434672445921, "timestamp": "2025-12-02T17:49:12.307666+00:00", "meta": {"OBJECT_NAME": "FENGYUN 1C DEB", "OBJECT_ID": "1999-025BAJ", "EPOCH": "2025-11-30T22:00:05.507424", "MEAN_MOTION": 14.52412926, "ECCENTRICITY": 0.01490924, "INCLINATION": 98.8521, "RA_OF_ASC_NODE": 29.9716, "ARG_OF_PERICENTER": 136.216, "MEAN_ANOMALY": 45.1058, "EPHEMERIS_TYPE": 0, "CLASSIFICATION_TYPE": "U", "NORAD_CAT_ID": 30944, "ELEMENT_SET_NO": 999, "REV_AT_EPOCH": 98904, "BSTAR": 0.00019021363, "MEAN_MOTION_DOT": 8.39e-06, "MEAN_MOTION_DDOT": 0}, "tle": {"line1": "1 30944U 99025BAJ 25334.91673041  .00000839  00000+0  19021-3 0  9998", "line2": "2 30944  98.8521  29.9716 0149092 136.2160  45.1058 14.52412926989042"}}, "geometry": {"type": "Point", "coordinates": [31.77901222779432, 0.7561887942275723]}}, {"type": "Feature", "properties": {"norad_id": 30945, "name": "FENGYUN 1C DEB", "group": "fengyun-1c-debris", "lat": -31.76816978420201, "lon": 158.75333265286986, "alt_km": 817.4843008784746, "timestamp": "2025-12-02T17:49:12.307677+00:00", "meta": {"OBJECT_NAME": "FENGYUN 1C DEB", "OBJECT_ID": "1999-025BAK", "EPOCH": "2025-12-02T00:17:47.503104", "MEAN_MOTION": 14.29563665, "ECCENTRICITY": 0.00310477, "INCLINATION": 99.3898, "RA_OF_ASC_NODE": 343.8484, "ARG_OF_PERICENTER": 68.7641, "MEAN_ANOMALY": 347.6072, "EPHEMERIS_TYPE": 0, "CLASSIFICATION_TYPE": "U", "NORAD_CAT_ID": 30945, "ELEMENT_SET_NO": 999, "REV_AT_EPOCH": 96284, "BSTAR": 0.0019395565, "MEAN_MOTION_DOT": 4.94e-05, "MEAN_MOTION_DDOT": 0}, "tle": {"line1": "1 30945U 99025BAK 25336.01235536  .00004940  00000+0  19396-2 0  9996", "line2": "2 30945  99.3898 343.8484 0031047  68.7641 347.6072 14.29563665962845"}}, "geometry": {"type": "Point", "coordinates": [158.75333265286986, -31.76816978420201]}}, {"type": "Feature", "properties": {"norad_id": 30946, "name": "FENGYUN 1C DEB", "group": "fengyun-1c-debris", "lat": -43.34981942572176, "lon": -97.40542609437942, "alt_km": 675.4256805954437, "timestamp": "2025-12-02T17:49:12.307687+00:00", "meta": {"OBJECT_NAME": "FENGYUN 1C DEB", "OBJECT_ID": "1999-025BAL", "EPOCH": "2025-11-28T06:54:24.657696", "MEAN_MOTION": 14.4800194, "ECCENTRICITY": 0.00890266, "INCLINATION": 99.039, "RA_OF_ASC_NODE": 86.4765, "ARG_OF_PERICENTER": 236.0797, "MEAN_ANOMALY": 179.3207, "EPHEMERIS_TYPE": 0, "CLASSIFICATION_TYPE": "U", "NORAD_CAT_ID": 30946, "ELEMENT_SET_NO": 999, "REV_AT_EPOCH": 98142, "BSTAR": 0.00084294618, "MEAN_MOTION_DOT": 3.237e-05, "MEAN_MOTION_DDOT": 0}, "tle": {"line1": "1 30946U 99025BAL 25332.28778539  .00003237  00000+0  84295-3 0  9996", "line2": "2 30946  99.0390  86.4765 0089026 236.0797 179.3207 14.48001940981423"}}, "geometry": {"type": "Point", "coordinates": [-97.40542609437942, -43.34981942572176]}}, {"type": "Feature", "properties": {"norad_id": 30947, "name": "FENGYUN 1C DEB", "group": "fengyun-1c-debris", "lat": -58.695493321741885, "lon": -119.10308355175998, "alt_km": 708.8201686567154, "timestamp": "2025-12-02T17:49:12.307698+00:00", "meta": {"OBJECT_NAME": "FENGYUN 1C DEB", "OBJECT_ID": "1999-025BAM", "EPOCH": "2025-12-01T03:41:10.986432", "MEAN_MOTION": 14.3800177, "ECCENTRICITY": 0.00958788, "INCLINATION": 98.8087, "RA_OF_ASC_NODE": 224.4953, "ARG_OF_PERICENTER": 282.3771, "MEAN_ANOMALY": 76.6697, "EPHEMERIS_TYPE": 0, "CLASSIFICATION_TYPE": "U", "NORAD_CAT_ID": 30947, "ELEMENT_SET_NO": 999, "REV_AT_EPOCH": 98326, "BSTAR": 0.00036480125, "MEAN_MOTION_DOT": 1.114e-05, "MEAN_MOTION_DDOT": 0}, "tle": {"line1": "1 30947U 99025BAM 25335.15359938  .00001114  00000+0  36480-3 0  9999", "line2": "2 30947  98.8087 224.4953 0095878 282.3771  76.6697 14.38001770983261"}}, "geometry": {"type": "Point", "coordinates": [-119.10308355175998, -58.695493321741885]}}, {"type": "Feature", "properties": {"norad_id": 30949, "name": "FENGYUN 1C DEB", "group": "fengyun-1c-debris", "lat": 10.246983138955098, "lon": -30.22709387375956, "alt_km": 775.1874956777692, "timestamp": "2025-12-02T17:49:12.307708+00:00", "meta": {"OBJECT_NAME": "FENGYUN 1C DEB", "OBJECT_ID": "1999-025BAP", "EPOCH": "2025-12-01T20:15:08.373888", "MEAN_MOTION": 14.1402851, "ECCENTRICITY": 0.01168865, "INCLINATION": 98.6974, "RA_OF_ASC_NODE": 330.4839, "ARG_OF_PERICENTER": 341.0642, "MEAN_ANOMALY": 136.6625, "EPHEMERIS_TYPE": 0, "CLASSIFICATION_TYPE": "U", "NORAD_CAT_ID": 30949, "ELEMENT_SET_NO": 999, "REV_AT_EPOCH": 96362, "BSTAR": 0.00027588479, "MEAN_MOTION_DOT": 5.16e-06, "MEAN_MOTION_DDOT": 0}, "tle": {"line1": "1 30949U 99025BAP 25335.84384692  .00000516  00000+0  27588-3 0  9996", "line2": "2 30949  98.6974 330.4839 0116886 341.0642 136.6625 14.14028510963621"}}, "geometry": {"type": "Point", "coordinates": [-30.22709387375956, 10.246983138955098]}}, {"type": "Feature", "properties": {"norad_id": 30954, "name": "FENGYUN 1C DEB", "group": "fengyun-1c-debris", "lat": 22.325421475095975, "lon": 73.47789905272148, "alt_km": 932.8235746737446, "timestamp": "2025-12-02T17:49:12.307718+00:00", "meta": {"OBJECT_NAME": "FENGYUN 1C DEB", "OBJECT_ID": "1999-025BAU", "EPOCH": "2025-12-02T06:06:00.662112", "MEAN_MOTION": 14.14838551, "ECCENTRICITY": 0.012848, "INCLINATION": 98.7125, "RA_OF_ASC_NODE": 76.6114, "ARG_OF_PERICENTER": 217.1092, "MEAN_ANOMALY": 199.3871, "EPHEMERIS_TYPE": 0, "CLASSIFICATION_TYPE": "U", "NORAD_CAT_ID": 30954, "ELEMENT_SET_NO": 999, "REV_AT_EPOCH": 96239, "BSTAR": 0.0016393, "MEAN_MOTION_DOT": 3.383e-05, "MEAN_MOTION_DDOT": 0}, "tle": {"line1": "1 30954U 99025BAU 25336.25417433  .00003383  00000+0  16393-2 0  9994", "line2": "2 30954  98.7125  76.6114 0128480 217.1092 199.3871 14.14838551962392"}}, "geometry": {"type": "Point", "coordinates": [73.47789905272148, 22.325421475095975]}}, {"type": "Feature", "properties": {"norad_id": 30956, "name": "FENGYUN 1C DEB", "group": "fengyun-1c-debris", "lat": 44.01119353155913, "lon": 2.386450604211621, "alt_km": 811.2740326546518, "timestamp": "2025-12-02T17:49:12.307728+00:00", "meta": {"OBJECT_NAME": "FENGYUN 1C DEB", "OBJECT_ID": "1999-025BAW", "EPOCH": "2025-12-02T00:46:05.015136", "MEAN_MOTION": 14.14147869, "ECCENTRICITY": 0.0049602, "INCLINATION": 98.761, "RA_OF_ASC_NODE": 10.2575, "ARG_OF_PERICENTER": 13.9486, "MEAN_ANOMALY": 15.3987, "EPHEMERIS_TYPE": 0, "CLASSIFICATION_TYPE": "U", "NORAD_CAT_ID": 30956, "ELEMENT_SET_NO": 999, "REV_AT_EPOCH": 96156, "BSTAR": 0.0010026276, "MEAN_MOTION_DOT": 1.889e-05, "MEAN_MOTION_DDOT": 0}, "tle": {"line1": "1 30956U 99025BAW 25336.03200249  .00001889  00000+0  10026-2 0  9993", "line2": "2 30956  98.7610  10.2575 0049602  13.9486  15.3987 14.14147869961563"}}, "geometry": {"type": "Point", "coordinates": [2.386450604211621, 44.01119353155913]}}]}